OBJECT_NAME,OBJECT_ID,EPOCH,MEAN_MOTION,ECCENTRICITY,INCLINATION,RA_OF_ASC_NODE,ARG_OF_PERICENTER,MEAN_ANOMALY,EPHEMERIS_TYPE,CLASSIFICATION_TYPE,NORAD_CAT_ID,ELEMENT_SET_NO,REV_AT_EPOCH,BSTAR,MEAN_MOTION_DOT,MEAN_MOTION_DDOT
ONEWEB-0275,2021-060AC,2026-06-14T04:32:57.606432,13.16594419,.00019489,87.9101,229.3707,95.9936,264.1417,0,U,48993,999,23916,.18093466E-3,.82E-6,0
ONEWEB-0276,2021-060AD,2026-06-14T05:20:49.752384,13.16594781,.00019913,87.9096,229.3639,93.3583,266.7776,0,U,48994,999,23918,.2146691E-3,.95E-6,0
ONEWEB-0277,2021-060AE,2026-06-14T05:39:04.913856,13.16593222,.00018972,87.9091,229.3703,101.3763,258.7582,0,U,48995,999,23917,.17965604E-3,.82E-6,0
ONEWEB-0278,2021-060AF,2026-06-14T05:25:21.753408,13.16593915,.00022536,87.9100,229.3622,100.5392,259.5992,0,U,48996,999,23930,-.53087487E-3,-.19E-5,0
ONEWEB-0279,2021-060AG,2026-06-14T03:47:21.530112,13.16593915,.00017681,87.9098,229.3739,96.5476,263.5856,0,U,48997,999,23922,.27518643E-3,.118E-5,0
ONEWEB-0280,2021-060AH,2026-06-14T05:58:26.530752,13.16593402,.00020666,87.9098,229.3599,107.6999,252.4358,0,U,48998,999,23917,.2556474E-3,.111E-5,0
ONEWEB-0281,2021-060AJ,2026-06-14T04:16:59.850336,13.16595042,.00020972,87.9101,229.3691,98.3224,261.8145,0,U,48999,999,23923,.28082916E-3,.12E-5,0
ONEWEB-0282,2021-060AK,2026-06-14T05:00:17.101728,13.16593500,.00019734,87.9096,229.3718,101.3976,258.7377,0,U,49000,999,23921,-.28499756E-3,-.96E-6,0
ONEWEB-0283,2021-060AL,2026-06-14T04:44:20.946624,13.16594425,.00018884,87.9098,229.3731,97.4369,262.6976,0,U,49001,999,23922,.70696746E-4,.4E-6,0
ONEWEB-0284,2021-060AM,2026-06-14T04:35:14.291232,13.16594580,.00022242,87.9100,229.3676,105.8341,254.3035,0,U,49002,999,23920,.11188295E-3,.56E-6,0
ONEWEB-0285,2021-075A,2026-06-14T05:44:51.557568,13.12443747,.00017677,87.8946,351.2481,91.9793,268.1538,0,U,49075,999,23482,-.11134615E-2,-.388E-5,0
ONEWEB-0286,2021-075B,2026-06-14T05:19:02.987904,13.12442167,.00019943,87.8936,351.2688,86.7990,273.3367,0,U,49076,999,23417,-.19449075E-3,-.57E-6,0
ONEWEB-0287,2021-075C,2026-06-14T01:16:42.472704,13.17648789,.00022844,87.9134,6.4896,86.2075,273.9318,0,U,49077,999,23321,-.22859207E-4,.4E-7,0
ONEWEB-0288,2021-075D,2026-06-14T06:34:53.190336,13.12442891,.00020468,87.8946,351.2347,92.7911,267.3452,0,U,49078,999,23480,.10847385E-2,.403E-5,0
ONEWEB-0289,2021-075E,2026-06-14T02:12:23.961600,13.17649360,.0001809,87.9140,6.4984,100.4604,259.6731,0,U,49079,999,23379,.48751919E-4,.32E-6,0
ONEWEB-0290,2021-075F,2026-06-14T07:01:46.323264,13.17647770,.00017613,87.9142,6.4303,104.2960,255.8367,0,U,49080,999,23323,-.8687846E-4,-.21E-6,0
ONEWEB-0291,2021-075G,2026-06-14T03:01:12.277920,13.17647915,.0002173,87.9138,6.4716,93.8147,266.3233,0,U,49081,999,23320,.29368632E-4,.24E-6,0
ONEWEB-0293,2021-075H,2026-06-14T01:48:17.506368,13.17647834,.00018644,87.9133,6.4847,92.9354,267.1991,0,U,49082,999,23322,-.27259725E-4,.2E-7,0
ONEWEB-0294,2021-075J,2026-06-14T04:54:51.706368,13.12443312,.0001773,87.8948,351.2521,101.1971,258.9357,0,U,49083,999,23418,.11517471E-2,.427E-5,0
ONEWEB-0295,2021-075K,2026-06-14T01:47:04.932096,13.17647829,.00021649,87.9134,6.4889,90.4125,269.7255,0,U,49084,999,23318,.6367796E-5,.15E-6,0
ONEWEB-0296,2021-075L,2026-06-14T06:15:21.742848,13.12444165,.0002143,87.8951,351.2484,94.5615,265.5759,0,U,49085,999,23419,.49948404E-3,.192E-5,0
ONEWEB-0297,2021-075M,2026-06-14T05:09:29.450016,13.12442560,.00019099,87.8936,351.2686,89.8774,270.2574,0,U,49086,999,23479,.43742286E-3,.17E-5,0
ONEWEB-0298,2021-075N,2026-06-14T01:53:21.256800,13.17647397,.00019241,87.9133,6.4861,84.7026,275.4325,0,U,49087,999,23321,.13198028E-3,.64E-6,0
ONEWEB-0299,2021-075P,2026-06-14T01:55:35.576832,13.17649469,.00019266,87.9144,6.4656,91.5252,268.6100,0,U,49088,999,23319,.29430481E-4,.24E-6,0
ONEWEB-0300,2021-075Q,2026-06-14T01:18:56.810016,13.12443474,.0001866,87.8948,351.2794,78.2379,281.8959,0,U,49089,999,23479,.8313141E-3,.312E-5,0
ONEWEB-0301,2021-075R,2026-06-14T06:25:06.918816,13.12444996,.00017194,87.8947,351.2357,79.3824,280.7499,0,U,49090,999,23418,.99956347E-3,.372E-5,0
ONEWEB-0302,2021-075S,2026-06-14T06:05:36.299904,13.12444307,.00019104,87.8950,351.2501,99.9126,260.2218,0,U,49091,999,23416,-.21416842E-3,-.64E-6,0
ONEWEB-0304,2021-075T,2026-06-14T01:19:08.352192,13.17648992,.00020329,87.9135,6.4935,88.3397,271.7968,0,U,49092,999,23316,-.78853879E-4,-.18E-6,0
ONEWEB-0305,2021-075U,2026-06-14T06:37:28.013952,13.17648641,.00022796,87.9142,6.4337,87.0637,273.0755,0,U,49093,999,23322,-.51774199E-4,-.7E-7,0
ONEWEB-0308,2021-075V,2026-06-14T05:55:50.369664,13.12444391,.00018175,87.8949,351.2437,90.3284,269.8053,0,U,49094,999,23417,-.72961362E-3,-.25E-5,0
