ONEWEB-0275             
1 48993U 21060AC  26165.18955563  .00000082  00000+0  18093-3 0  9997
2 48993  87.9101 229.3707 0001948  95.9936 264.1417 13.16594419239163
ONEWEB-0276             
1 48994U 21060AD  26165.22279806  .00000095  00000+0  21467-3 0  9995
2 48994  87.9096 229.3639 0001991  93.3583 266.7776 13.16594781239189
ONEWEB-0277             
1 48995U 21060AE  26165.23547354  .00000082  00000+0  17966-3 0  9998
2 48995  87.9091 229.3703 0001897 101.3763 258.7582 13.16593222239176
ONEWEB-0278             
1 48996U 21060AF  26165.22594622 -.00000190  00000+0 -53087-3 0  9994
2 48996  87.9100 229.3622 0002253 100.5392 259.5992 13.16593915239302
ONEWEB-0279             
1 48997U 21060AG  26165.15788808  .00000118  00000+0  27519-3 0  9997
2 48997  87.9098 229.3739 0001768  96.5476 263.5856 13.16593915239220
ONEWEB-0280             
1 48998U 21060AH  26165.24891818  .00000111  00000+0  25565-3 0  9996
2 48998  87.9098 229.3599 0002066 107.6999 252.4358 13.16593402239170
ONEWEB-0281             
1 48999U 21060AJ  26165.17847049  .00000120  00000+0  28083-3 0  9994
2 48999  87.9101 229.3691 0002097  98.3224 261.8145 13.16595042239237
ONEWEB-0282             
1 49000U 21060AK  26165.20853127 -.00000096  00000+0 -28500-3 0  9994
2 49000  87.9096 229.3718 0001973 101.3976 258.7377 13.16593500239212
ONEWEB-0283             
1 49001U 21060AL  26165.19746466  .00000040  00000+0  70697-4 0  9992
2 49001  87.9098 229.3731 0001888  97.4369 262.6976 13.16594425239223
ONEWEB-0284             
1 49002U 21060AM  26165.19113763  .00000056  00000+0  11188-3 0  9997
2 49002  87.9100 229.3676 0002224 105.8341 254.3035 13.16594580239209
ONEWEB-0285             
1 49075U 21075A   26165.23948562 -.00000388  00000+0 -11135-2 0  9992
2 49075  87.8946 351.2481 0001767  91.9793 268.1538 13.12443747234820
ONEWEB-0286             
1 49076U 21075B   26165.22156236 -.00000057  00000+0 -19449-3 0  9991
2 49076  87.8936 351.2688 0001994  86.7990 273.3367 13.12442167234173
ONEWEB-0287             
1 49077U 21075C   26165.05326936  .00000004  00000+0 -22859-4 0  9990
2 49077  87.9134   6.4896 0002284  86.2075 273.9318 13.17648789233216
ONEWEB-0288             
1 49078U 21075D   26165.27422674  .00000403  00000+0  10847-2 0  9995
2 49078  87.8946 351.2347 0002046  92.7911 267.3452 13.12442891234809
ONEWEB-0289             
1 49079U 21075E   26165.09194400  .00000032  00000+0  48752-4 0  9995
2 49079  87.9140   6.4984 0001809 100.4604 259.6731 13.17649360233791
ONEWEB-0290             
1 49080U 21075F   26165.29289726 -.00000021  00000+0 -86878-4 0  9996
2 49080  87.9142   6.4303 0001761 104.2960 255.8367 13.17647770233239
ONEWEB-0291             
1 49081U 21075G   26165.12583655  .00000024  00000+0  29369-4 0  9990
2 49081  87.9138   6.4716 0002173  93.8147 266.3233 13.17647915233208
ONEWEB-0293             
1 49082U 21075H   26165.07520262  .00000002  00000+0 -27260-4 0  9995
2 49082  87.9133   6.4847 0001864  92.9354 267.1991 13.17647834233227
ONEWEB-0294             
1 49083U 21075J   26165.20476512  .00000427  00000+0  11517-2 0  9995
2 49083  87.8948 351.2521 0001773 101.1971 258.9357 13.12443312234188
ONEWEB-0295             
1 49084U 21075K   26165.07436264  .00000015  00000+0  63678-5 0  9992
2 49084  87.9134   6.4889 0002164  90.4125 269.7255 13.17647829233189
ONEWEB-0296             
1 49085U 21075L   26165.26066832  .00000192  00000+0  49948-3 0  9992
2 49085  87.8951 351.2484 0002143  94.5615 265.5759 13.12444165234192
ONEWEB-0297             
1 49086U 21075M   26165.21492419  .00000170  00000+0  43742-3 0  9994
2 49086  87.8936 351.2686 0001909  89.8774 270.2574 13.12442560234793
ONEWEB-0298             
1 49087U 21075N   26165.07871825  .00000064  00000+0  13198-3 0  9995
2 49087  87.9133   6.4861 0001924  84.7026 275.4325 13.17647397233216
ONEWEB-0299             
1 49088U 21075P   26165.08027288  .00000024  00000+0  29430-4 0  9996
2 49088  87.9144   6.4656 0001926  91.5252 268.6100 13.17649469233194
ONEWEB-0300             
1 49089U 21075Q   26165.05482419  .00000312  00000+0  83131-3 0  9992
2 49089  87.8948 351.2794 0001866  78.2379 281.8959 13.12443474234794
ONEWEB-0301             
1 49090U 21075R   26165.26744119  .00000372  00000+0  99956-3 0  9993
2 49090  87.8947 351.2357 0001719  79.3824 280.7499 13.12444996234184
ONEWEB-0302             
1 49091U 21075S   26165.25389236 -.00000064  00000+0 -21417-3 0  9995
2 49091  87.8950 351.2501 0001910  99.9126 260.2218 13.12444307234162
ONEWEB-0304             
1 49092U 21075T   26165.05495778 -.00000018  00000+0 -78854-4 0  9990
2 49092  87.9135   6.4935 0002032  88.3397 271.7968 13.17648992233166
ONEWEB-0305             
1 49093U 21075U   26165.27601868 -.00000007  00000+0 -51774-4 0  9994
2 49093  87.9142   6.4337 0002279  87.0637 273.0755 13.17648641233224
ONEWEB-0308             
1 49094U 21075V   26165.24711076 -.00000250  00000+0 -72961-3 0  9995
2 49094  87.8949 351.2437 0001817  90.3284 269.8053 13.12444391234173
